[{"OBJECT_NAME":"STARLINK-35074","OBJECT_ID":"2025-192U","EPOCH":"2026-03-09T21:16:46.062336","MEAN_MOTION":15.30210364,"ECCENTRICITY":7.971e-5,"INCLINATION":53.1588,"RA_OF_ASC_NODE":231.4828,"ARG_OF_PERICENTER":59.4601,"MEAN_ANOMALY":300.6479,"EPHEMERIS_TYPE":0,"CLASSIFICATION_TYPE":"U","NORAD_CAT_ID":65422,"ELEMENT_SET_NO":999,"REV_AT_EPOCH":2941,"BSTAR":0.0010780898,"MEAN_MOTION_DOT":0.00031717,"MEAN_MOTION_DDOT":0},{"OBJECT_NAME":"OBJECT L","OBJECT_ID":"2024-024L","EPOCH":"2026-03-09T22:36:05.522976","MEAN_MOTION":15.29373491,"ECCENTRICITY":0.00073185,"INCLINATION":97.3169,"RA_OF_ASC_NODE":137.7038,"ARG_OF_PERICENTER":167.6369,"MEAN_ANOMALY":192.5052,"EPHEMERIS_TYPE":0,"CLASSIFICATION_TYPE":"U","NORAD_CAT_ID":58927,"ELEMENT_SET_NO":999,"REV_AT_EPOCH":9318,"BSTAR":0.00043092344,"MEAN_MOTION_DOT":0.00012217,"MEAN_MOTION_DDOT":0}]
